[{"OBJECT_NAME":"ONEWEB-0240","OBJECT_ID":"2021-045U","EPOCH":"2026-03-09T14:58:28.098912","MEAN_MOTION":13.1554678,"ECCENTRICITY":0.0001907,"INCLINATION":87.8957,"RA_OF_ASC_NODE":279.0506,"ARG_OF_PERICENTER":95.4095,"MEAN_ANOMALY":264.7253,"EPHEMERIS_TYPE":0,"CLASSIFICATION_TYPE":"U","NORAD_CAT_ID":48785,"ELEMENT_SET_NO":999,"REV_AT_EPOCH":23131,"BSTAR":-0.00017506,"MEAN_MOTION_DOT":-5.3e-7,"MEAN_MOTION_DDOT":0},{"OBJECT_NAME":"DELTA 1 DEB","OBJECT_ID":"1975-052LA","EPOCH":"2026-03-09T10:19:11.376192","MEAN_MOTION":13.12865654,"ECCENTRICITY":0.01720197,"INCLINATION":99.757,"RA_OF_ASC_NODE":116.5999,"ARG_OF_PERICENTER":164.1265,"MEAN_ANOMALY":323.5013,"EPHEMERIS_TYPE":0,"CLASSIFICATION_TYPE":"U","NORAD_CAT_ID":26846,"ELEMENT_SET_NO":999,"REV_AT_EPOCH":38334,"BSTAR":0.00062604183,"MEAN_MOTION_DOT":2.05e-6,"MEAN_MOTION_DDOT":0}]
